CCSDS_OMM_VERS = 2.0
CREATION_DATE  = 
ORIGINATOR     = 

OBJECT_NAME    = ELECTRON KICK STAGE R/B
OBJECT_ID      = 2025-305E
CENTER_NAME    = EARTH
REF_FRAME      = TEME
TIME_SYSTEM    = UTC
MEAN_ELEMENT_THEORY = SGP/SGP4

EPOCH          = 2025-12-23T06:58:48.011808
MEAN_MOTION    = 15.48545747
ECCENTRICITY   = .017749
INCLINATION    = 44.9877
RA_OF_ASC_NODE = 292.9264
ARG_OF_PERICENTER = 166.6089
MEAN_ANOMALY   = 193.9601

EPHEMERIS_TYPE = 0
CLASSIFICATION_TYPE = U
NORAD_CAT_ID   = 67223
ELEMENT_SET_NO = 999
REV_AT_EPOCH   = 79
BSTAR          = .18366E-3
MEAN_MOTION_DOT = .18707E-3
MEAN_MOTION_DDOT = 0

CCSDS_OMM_VERS = 2.0
CREATION_DATE  = 
ORIGINATOR     = 

OBJECT_NAME    = TJS-23
OBJECT_ID      = 2025-306A
CENTER_NAME    = EARTH
REF_FRAME      = TEME
TIME_SYSTEM    = UTC
MEAN_ELEMENT_THEORY = SGP/SGP4

EPOCH          = 2026-01-08T01:01:21.315648
MEAN_MOTION    = 1.00268522
ECCENTRICITY   = .00001146
INCLINATION    = 5.9524
RA_OF_ASC_NODE = 298.3177
ARG_OF_PERICENTER = 341.0020
MEAN_ANOMALY   = 19.1690

EPHEMERIS_TYPE = 0
CLASSIFICATION_TYPE = U
NORAD_CAT_ID   = 67226
ELEMENT_SET_NO = 999
REV_AT_EPOCH   = 28
BSTAR          = 0
MEAN_MOTION_DOT = .22E-6
MEAN_MOTION_DDOT = 0

CCSDS_OMM_VERS = 2.0
CREATION_DATE  = 
ORIGINATOR     = 

OBJECT_NAME    = CZ-5 R/B
OBJECT_ID      = 2025-306B
CENTER_NAME    = EARTH
REF_FRAME      = TEME
TIME_SYSTEM    = UTC
MEAN_ELEMENT_THEORY = SGP/SGP4

EPOCH          = 2026-01-08T10:51:34.005888
MEAN_MOTION    = 1.92440477
ECCENTRICITY   = .75784771
INCLINATION    = 16.3014
RA_OF_ASC_NODE = 292.7703
ARG_OF_PERICENTER = 190.5729
MEAN_ANOMALY   = 131.8011

EPHEMERIS_TYPE = 0
CLASSIFICATION_TYPE = U
NORAD_CAT_ID   = 67227
ELEMENT_SET_NO = 999
REV_AT_EPOCH   = 38
BSTAR          = .18196008E-2
MEAN_MOTION_DOT = .6841E-4
MEAN_MOTION_DDOT = 0

CCSDS_OMM_VERS = 2.0
CREATION_DATE  = 
ORIGINATOR     = 

OBJECT_NAME    = QPS-SAR-15
OBJECT_ID      = 2025-307A
CENTER_NAME    = EARTH
REF_FRAME      = TEME
TIME_SYSTEM    = UTC
MEAN_ELEMENT_THEORY = SGP/SGP4

EPOCH          = 2026-01-08T10:39:17.549568
MEAN_MOTION    = 14.97308177
ECCENTRICITY   = .00083958
INCLINATION    = 42.0079
RA_OF_ASC_NODE = 24.0990
ARG_OF_PERICENTER = 21.4035
MEAN_ANOMALY   = 338.7139

EPHEMERIS_TYPE = 0
CLASSIFICATION_TYPE = U
NORAD_CAT_ID   = 67228
ELEMENT_SET_NO = 999
REV_AT_EPOCH   = 272
BSTAR          = .52555926E-3
MEAN_MOTION_DOT = .6024E-4
MEAN_MOTION_DDOT = 0

CCSDS_OMM_VERS = 2.0
CREATION_DATE  = 
ORIGINATOR     = 

OBJECT_NAME    = ELECTRON R/B
OBJECT_ID      = 2025-307B
CENTER_NAME    = EARTH
REF_FRAME      = TEME
TIME_SYSTEM    = UTC
MEAN_ELEMENT_THEORY = SGP/SGP4

EPOCH          = 2026-01-08T10:44:35.044512
MEAN_MOTION    = 15.75660939
ECCENTRICITY   = .01756515
INCLINATION    = 41.9964
RA_OF_ASC_NODE = 13.5156
ARG_OF_PERICENTER = 8.1519
MEAN_ANOMALY   = 352.2126

EPHEMERIS_TYPE = 0
CLASSIFICATION_TYPE = U
NORAD_CAT_ID   = 67229
ELEMENT_SET_NO = 999
REV_AT_EPOCH   = 284
BSTAR          = .20231979E-2
MEAN_MOTION_DOT = .924121E-2
MEAN_MOTION_DDOT = .30045668E-3

CCSDS_OMM_VERS = 2.0
CREATION_DATE  = 
ORIGINATOR     = 

OBJECT_NAME    = ELECTRON KICK STAGE R/B
OBJECT_ID      = 2025-307C
CENTER_NAME    = EARTH
REF_FRAME      = TEME
TIME_SYSTEM    = UTC
MEAN_ELEMENT_THEORY = SGP/SGP4

EPOCH          = 2026-01-08T16:41:00.802752
MEAN_MOTION    = 15.90123133
ECCENTRICITY   = .0138399
INCLINATION    = 42.0037
RA_OF_ASC_NODE = 11.0389
ARG_OF_PERICENTER = 43.2715
MEAN_ANOMALY   = 317.8917

EPHEMERIS_TYPE = 0
CLASSIFICATION_TYPE = U
NORAD_CAT_ID   = 67230
ELEMENT_SET_NO = 999
REV_AT_EPOCH   = 129
BSTAR          = .21319E-2
MEAN_MOTION_DOT = .1649926E-1
MEAN_MOTION_DDOT = .78592E-5

CCSDS_OMM_VERS = 2.0
CREATION_DATE  = 
ORIGINATOR     = 

OBJECT_NAME    = SPACEMOBILE-006
OBJECT_ID      = 2025-309A
CENTER_NAME    = EARTH
REF_FRAME      = TEME
TIME_SYSTEM    = UTC
MEAN_ELEMENT_THEORY = SGP/SGP4

EPOCH          = 2026-01-08T11:04:35.702112
MEAN_MOTION    = 15.17724114
ECCENTRICITY   = .0011457
INCLINATION    = 52.9976
RA_OF_ASC_NODE = 342.7471
ARG_OF_PERICENTER = 9.9037
MEAN_ANOMALY   = 350.2180

EPHEMERIS_TYPE = 0
CLASSIFICATION_TYPE = U
NORAD_CAT_ID   = 67232
ELEMENT_SET_NO = 999
REV_AT_EPOCH   = 233
BSTAR          = .92153569E-4
MEAN_MOTION_DOT = .1565E-4
MEAN_MOTION_DDOT = 0

CCSDS_OMM_VERS = 2.0
CREATION_DATE  = 
ORIGINATOR     = 

OBJECT_NAME    = LVM3 R/B
OBJECT_ID      = 2025-309B
CENTER_NAME    = EARTH
REF_FRAME      = TEME
TIME_SYSTEM    = UTC
MEAN_ELEMENT_THEORY = SGP/SGP4

EPOCH          = 2026-01-04T16:40:39.516384
MEAN_MOTION    = 15.19528008
ECCENTRICITY   = .00107559
INCLINATION    = 52.9311
RA_OF_ASC_NODE = 359.6732
ARG_OF_PERICENTER = 22.9748
MEAN_ANOMALY   = 337.1724

EPHEMERIS_TYPE = 0
CLASSIFICATION_TYPE = U
NORAD_CAT_ID   = 67233
ELEMENT_SET_NO = 999
REV_AT_EPOCH   = 176
BSTAR          = .84366349E-4
MEAN_MOTION_DOT = .1492E-4
MEAN_MOTION_DDOT = 0

CCSDS_OMM_VERS = 2.0
CREATION_DATE  = 
ORIGINATOR     = 

OBJECT_NAME    = 2025-310A
OBJECT_ID      = 2025-310A
CENTER_NAME    = EARTH
REF_FRAME      = TEME
TIME_SYSTEM    = UTC
MEAN_ELEMENT_THEORY = SGP/SGP4

EPOCH          = 2026-01-07T16:06:22.408416
MEAN_MOTION    = 14.75713796
ECCENTRICITY   = .00014299
INCLINATION    = 97.9664
RA_OF_ASC_NODE = 17.2888
ARG_OF_PERICENTER = 204.5799
MEAN_ANOMALY   = 155.5342

EPHEMERIS_TYPE = 0
CLASSIFICATION_TYPE = U
NORAD_CAT_ID   = 67234
ELEMENT_SET_NO = 999
REV_AT_EPOCH   = 195
BSTAR          = .12564798E-4
MEAN_MOTION_DOT = .36E-6
MEAN_MOTION_DDOT = 0

CCSDS_OMM_VERS = 2.0
CREATION_DATE  = 
ORIGINATOR     = 

OBJECT_NAME    = SL-4 R/B
OBJECT_ID      = 2025-310B
CENTER_NAME    = EARTH
REF_FRAME      = TEME
TIME_SYSTEM    = UTC
MEAN_ELEMENT_THEORY = SGP/SGP4

EPOCH          = 2026-01-06T23:19:17.199840
MEAN_MOTION    = 15.54322026
ECCENTRICITY   = .02798039
INCLINATION    = 97.9559
RA_OF_ASC_NODE = 17.8332
ARG_OF_PERICENTER = 31.7615
MEAN_ANOMALY   = 330.0176

EPHEMERIS_TYPE = 0
CLASSIFICATION_TYPE = U
NORAD_CAT_ID   = 67235
ELEMENT_SET_NO = 999
REV_AT_EPOCH   = 192
BSTAR          = .29114417E-3
MEAN_MOTION_DOT = .123938E-2
MEAN_MOTION_DDOT = .2291578E-5

CCSDS_OMM_VERS = 2.0
CREATION_DATE  = 
ORIGINATOR     = 

OBJECT_NAME    = HULIANWANG DIGUI-128
OBJECT_ID      = 2025-311A
CENTER_NAME    = EARTH
REF_FRAME      = TEME
TIME_SYSTEM    = UTC
MEAN_ELEMENT_THEORY = SGP/SGP4

EPOCH          = 2026-01-04T20:28:28.366176
MEAN_MOTION    = 13.92362434
ECCENTRICITY   = .00063362
INCLINATION    = 50.0093
RA_OF_ASC_NODE = 356.3671
ARG_OF_PERICENTER = 302.5494
MEAN_ANOMALY   = 57.4793

EPHEMERIS_TYPE = 0
CLASSIFICATION_TYPE = U
NORAD_CAT_ID   = 67236
ELEMENT_SET_NO = 999
REV_AT_EPOCH   = 138
BSTAR          = .17960448E-4
MEAN_MOTION_DOT = -.124E-5
MEAN_MOTION_DDOT = 0

CCSDS_OMM_VERS = 2.0
CREATION_DATE  = 
ORIGINATOR     = 

OBJECT_NAME    = HULIANWANG DIGUI-129
OBJECT_ID      = 2025-311B
CENTER_NAME    = EARTH
REF_FRAME      = TEME
TIME_SYSTEM    = UTC
MEAN_ELEMENT_THEORY = SGP/SGP4

EPOCH          = 2026-01-04T22:13:09.856128
MEAN_MOTION    = 13.92355961
ECCENTRICITY   = .00076142
INCLINATION    = 50.0085
RA_OF_ASC_NODE = 356.0807
ARG_OF_PERICENTER = 310.3898
MEAN_ANOMALY   = 49.6336

EPHEMERIS_TYPE = 0
CLASSIFICATION_TYPE = U
NORAD_CAT_ID   = 67237
ELEMENT_SET_NO = 999
REV_AT_EPOCH   = 139
BSTAR          = .1776699E-4
MEAN_MOTION_DOT = -.124E-5
MEAN_MOTION_DDOT = 0

