ELECTRON KICK STAGE R/B 
1 67223U 25305E   25357.29083347  .00018707  00000+0  18366-3 0  9992
2 67223  44.9877 292.9264 0177490 166.6089 193.9601 15.48545747   794
TJS-23                  
1 67226U 25306A   26008.04260782  .00000022  00000+0  00000+0 0  9996
2 67226   5.9524 298.3177 0000114 341.0020  19.1690  1.00268522   285
CZ-5 R/B                
1 67227U 25306B   26008.45247692  .00006841  00000+0  18196-2 0  9990
2 67227  16.3014 292.7703 7578477 190.5729 131.8011  1.92440477   383
QPS-SAR-15              
1 67228U 25307A   26008.44395312  .00006024  00000+0  52556-3 0  9996
2 67228  42.0079  24.0990 0008395  21.4035 338.7139 14.97308177  2725
ELECTRON R/B            
1 67229U 25307B   26008.44762783  .00924121  30046-3  20232-2 0  9996
2 67229  41.9964  13.5156 0175651   8.1519 352.2126 15.75660939  2847
ELECTRON KICK STAGE R/B 
1 67230U 25307C   26008.69514818  .01649926  78592-5  21319-2 0  9994
2 67230  42.0037  11.0389 0138399  43.2715 317.8917 15.90123133  1299
SPACEMOBILE-006         
1 67232U 25309A   26008.46152433  .00001565  00000+0  92154-4 0  9994
2 67232  52.9976 342.7471 0011457   9.9037 350.2180 15.17724114  2334
LVM3 R/B                
1 67233U 25309B   26004.69490181  .00001492  00000+0  84366-4 0  9996
2 67233  52.9311 359.6732 0010755  22.9748 337.1724 15.19528008  1769
2025-310A               
1 67234U 25310A   26007.67109269  .00000036  00000+0  12565-4 0  9999
2 67234  97.9664  17.2888 0001429 204.5799 155.5342 14.75713796  1951
SL-4 R/B                
1 67235U 25310B   26006.97172685  .00123938  22916-5  29114-3 0  9994
2 67235  97.9559  17.8332 0279803  31.7615 330.0176 15.54322026  1927
HULIANWANG DIGUI-128    
1 67236U 25311A   26004.85310609 -.00000124  00000+0  17960-4 0  9994
2 67236  50.0093 356.3671 0006336 302.5494  57.4793 13.92362434  1383
HULIANWANG DIGUI-129    
1 67237U 25311B   26004.92580852 -.00000124  00000+0  17767-4 0  9997
2 67237  50.0085 356.0807 0007614 310.3898  49.6336 13.92355961  1392
